OBJECT_NAME,OBJECT_ID,EPOCH,MEAN_MOTION,ECCENTRICITY,INCLINATION,RA_OF_ASC_NODE,ARG_OF_PERICENTER,MEAN_ANOMALY,EPHEMERIS_TYPE,CLASSIFICATION_TYPE,NORAD_CAT_ID,ELEMENT_SET_NO,REV_AT_EPOCH,BSTAR,MEAN_MOTION_DOT,MEAN_MOTION_DDOT
STARLINK-37491,2026-111U,2026-06-09T08:46:15.890016,15.78111592,.000101,53.1588,190.8295,115.3752,244.7374,0,U,69166,999,302,.10985E-2,.194961E-2,0
STARLINK-37474,2026-111V,2026-06-09T08:42:35.316000,15.78091971,.000108,53.1594,190.8126,51.3663,308.7455,0,U,69167,999,302,.76601E-3,.134671E-2,0
STARLINK-37469,2026-111W,2026-06-09T12:00:02.998944,15.59221925,.0001029,53.1601,190.3296,69.1163,251.5214,0,U,69168,999,431,-.36027E-1,-.2503657E-1,0
STARLINK-37515,2026-111X,2026-06-09T08:40:13.677888,15.78096977,.0001226,53.1595,190.8010,28.4884,331.6204,0,U,69169,999,302,.97197E-3,.171851E-2,0
STARLINK-37437,2026-111Y,2026-06-09T12:00:02.998944,15.78056607,.0001087,53.1596,190.0596,83.7636,9.4512,0,U,69170,999,431,-.19955E-3,-.35175E-3,0
STARLINK-37392,2026-111Z,2026-06-09T12:00:02.998944,15.78024698,.0001177,53.1593,190.0298,72.2126,35.3370,0,U,69171,999,431,.11159E-3,.18723E-3,0
STARLINK-37472,2026-111AA,2026-06-09T12:00:02.998944,15.78032862,.0001061,53.1597,189.9979,76.6224,46.1200,0,U,69172,999,431,.10132E-3,.16942E-3,0
STARLINK-37461,2026-111AB,2026-06-09T12:00:02.998944,15.61038717,.00008,53.1598,190.2639,74.1903,278.5711,0,U,69173,999,431,-.33248E-1,-.2482022E-1,0
STARLINK-37333,2026-111AC,2026-06-09T08:37:54.117696,15.78096595,.0000851,53.1585,190.7896,80.2739,279.8378,0,U,69174,999,302,.92266E-3,.162924E-2,0
STARLINK-37385,2026-111AD,2026-06-09T12:00:02.998944,15.63025405,.0000764,53.1599,190.2084,69.4675,310.1315,0,U,69175,999,431,-.30968E-1,-.2497245E-1,0
STARLINK-37414,2026-111AE,2026-06-09T12:00:02.998944,15.78035794,.0001109,53.1592,190.0389,76.5610,26.3556,0,U,69176,999,431,.27491E-5,-.191E-5,0
STRIX-7,2026-112A,2026-06-09T10:54:10.300896,15.01397139,.0023944,44.9067,233.0634,3.2871,356.8154,0,U,69177,999,271,.23961E-3,.2923E-4,0
SHENZHOU-23 (SZ-23),2026-113A,2026-06-09T05:36:48.541824,15.60473761,.00084146,41.4695,10.3915,13.9110,346.1959,0,U,69180,999,29188,.23663045E-3,.19782E-3,0
STARLINK-37380,2026-114A,2026-06-09T07:16:13.665216,15.78079070,.0001191,53.1584,241.8572,59.4820,300.6319,0,U,69182,999,352,.69322E-3,.12155E-2,0
STARLINK-37089,2026-114B,2026-06-09T08:46:05.005344,15.78074456,.0000996,53.1584,241.5349,88.9210,271.1926,0,U,69183,999,353,.70393E-3,.123441E-2,0
STARLINK-37428,2026-114C,2026-06-09T07:12:51.469344,15.78083963,.0001073,53.1586,241.8420,78.7370,281.3772,0,U,69184,999,352,.86793E-3,.152952E-2,0
STARLINK-37237,2026-114D,2026-06-09T08:40:05.628000,15.78091133,.0001288,53.1588,241.5077,105.0552,255.0612,0,U,69185,999,353,.94084E-3,.166171E-2,0
STARLINK-37365,2026-114E,2026-06-09T07:09:20.827872,15.78080869,.0001263,53.1587,241.8250,67.4370,292.6785,0,U,69186,999,352,.85499E-3,.1506E-2,0
STARLINK-37209,2026-114F,2026-06-09T07:08:13.954272,15.78080385,.0001199,53.1588,241.8198,97.1915,262.9242,0,U,69187,999,352,.79334E-3,.139505E-2,0
STARLINK-37359,2026-114G,2026-06-09T07:07:35.942592,15.78047811,.0001099,53.1590,241.8171,74.9680,285.1463,0,U,69188,999,352,.40325E-3,.699E-3,0
STARLINK-37440,2026-114H,2026-06-09T12:00:02.998944,15.80897663,.000094,53.1593,240.3596,94.8837,194.7171,0,U,69189,999,357,-.50976E-4,-.10758E-3,0
STARLINK-37282,2026-114J,2026-06-09T12:00:02.998944,15.78089377,.0000976,53.1598,240.7283,96.6980,14.4988,0,U,69190,999,357,-.35831E-3,-.62521E-3,0
STARLINK-37422,2026-114K,2026-06-09T09:55:04.416384,15.80904987,.0001235,53.1591,241.1143,123.1357,236.9784,0,U,69191,999,354,.7713E-3,.15451E-2,0
STARLINK-37424,2026-114L,2026-06-09T12:00:02.998944,15.78064038,.0001119,53.1593,240.7305,84.0006,26.5764,0,U,69192,999,357,.6188E-4,.10093E-3,0
STARLINK-36666,2026-114M,2026-06-09T09:55:23.707776,15.80890734,.0001003,53.1591,241.1168,66.2289,293.8838,0,U,69193,999,354,.60929E-3,.121356E-2,0
STARLINK-37355,2026-114N,2026-06-09T09:54:18.963936,15.80894514,.0001183,53.1590,241.1121,55.9523,304.1612,0,U,69194,999,354,.781E-3,.156422E-2,0
STARLINK-37166,2026-114P,2026-06-09T09:52:09.098688,15.80851701,.0001003,53.1590,241.1007,80.8571,279.2565,0,U,69195,999,354,.68461E-3,.13644E-2,0
STARLINK-36933,2026-114Q,2026-06-09T09:53:14.030016,15.80891843,.0001064,53.1590,241.1066,77.3057,282.8085,0,U,69196,999,354,.59282E-3,.118018E-2,0
STARLINK-37419,2026-114R,2026-06-09T09:51:04.366080,15.80900444,.0001142,53.1590,241.0961,99.5687,260.5464,0,U,69197,999,354,.65487E-3,.130689E-2,0
