STARLINK-37491          
1 69166U 26111U   26160.36546169  .00194961  00000+0  10985-2 0  9998
2 69166  53.1588 190.8295 0001010 115.3752 244.7374 15.78111592  3026
STARLINK-37474          
1 69167U 26111V   26160.36290875  .00134671  00000+0  76601-3 0  9999
2 69167  53.1594 190.8126 0001080  51.3663 308.7455 15.78091971  3023
STARLINK-37469          
1 69168U 26111W   26160.50003471 -.02503657  00000+0 -36027-1 0  9994
2 69168  53.1601 190.3296 0001029  69.1163 251.5214 15.59221925  4315
STARLINK-37515          
1 69169U 26111X   26160.36126942  .00171851  00000+0  97197-3 0  9998
2 69169  53.1595 190.8010 0001226  28.4884 331.6204 15.78096977  3028
STARLINK-37437          
1 69170U 26111Y   26160.50003471 -.00035175  00000+0 -19955-3 0  9993
2 69170  53.1596 190.0596 0001087  83.7636   9.4512 15.78056607  4317
STARLINK-37392          
1 69171U 26111Z   26160.50003471  .00018723  00000+0  11159-3 0  9990
2 69171  53.1593 190.0298 0001177  72.2126  35.3370 15.78024698  4316
STARLINK-37472          
1 69172U 26111AA  26160.50003471  .00016942  00000+0  10132-3 0  9992
2 69172  53.1597 189.9979 0001061  76.6224  46.1200 15.78032862  4317
STARLINK-37461          
1 69173U 26111AB  26160.50003471 -.02482022  00000+0 -33248-1 0  9994
2 69173  53.1598 190.2639 0000800  74.1903 278.5711 15.61038717  4319
STARLINK-37333          
1 69174U 26111AC  26160.35965414  .00162924  00000+0  92266-3 0  9991
2 69174  53.1585 190.7896 0000851  80.2739 279.8378 15.78096595  3023
STARLINK-37385          
1 69175U 26111AD  26160.50003471 -.02497245  00000+0 -30968-1 0  9995
2 69175  53.1599 190.2084 0000764  69.4675 310.1315 15.63025405  4313
STARLINK-37414          
1 69176U 26111AE  26160.50003471 -.00000191  00000+0  27491-5 0  9994
2 69176  53.1592 190.0389 0001109  76.5610  26.3556 15.78035794  4316
STRIX-7                 
1 69177U 26112A   26160.45428589  .00002923  00000+0  23961-3 0  9991
2 69177  44.9067 233.0634 0023944   3.2871 356.8154 15.01397139  2717
SHENZHOU-23 (SZ-23)     
1 69180U 26113A   26160.23389516  .00019782  00000+0  23663-3 0  9998
2 69180  41.4695  10.3915 0008414  13.9110 346.1959 15.60473761291881
STARLINK-37380          
1 69182U 26114A   26160.30293594  .00121550  00000+0  69322-3 0  9998
2 69182  53.1584 241.8572 0001191  59.4820 300.6319 15.78079070  3529
STARLINK-37089          
1 69183U 26114B   26160.36533571  .00123441  00000+0  70393-3 0  9998
2 69183  53.1584 241.5349 0000996  88.9210 271.1926 15.78074456  3531
STARLINK-37428          
1 69184U 26114C   26160.30059571  .00152952  00000+0  86793-3 0  9996
2 69184  53.1586 241.8420 0001073  78.7370 281.3772 15.78083963  3522
STARLINK-37237          
1 69185U 26114D   26160.36117625  .00166171  00000+0  94084-3 0  9998
2 69185  53.1588 241.5077 0001288 105.0552 255.0612 15.78091133  3534
STARLINK-37365          
1 69186U 26114E   26160.29815773  .00150600  00000+0  85499-3 0  9990
2 69186  53.1587 241.8250 0001263  67.4370 292.6785 15.78080869  3523
STARLINK-37209          
1 69187U 26114F   26160.29738373  .00139505  00000+0  79334-3 0  9993
2 69187  53.1588 241.8198 0001199  97.1915 262.9242 15.78080385  3520
STARLINK-37359          
1 69188U 26114G   26160.29694378  .00069900  00000+0  40325-3 0  9999
2 69188  53.1590 241.8171 0001099  74.9680 285.1463 15.78047811  3525
STARLINK-37440          
1 69189U 26114H   26160.50003471 -.00010758  00000+0 -50976-4 0  9995
2 69189  53.1593 240.3596 0000940  94.8837 194.7171 15.80897663  3570
STARLINK-37282          
1 69190U 26114J   26160.50003471 -.00062521  00000+0 -35831-3 0  9994
2 69190  53.1598 240.7283 0000976  96.6980  14.4988 15.78089377  3578
STARLINK-37422          
1 69191U 26114K   26160.41324556  .00154510  00000+0  77130-3 0  9991
2 69191  53.1591 241.1143 0001235 123.1357 236.9784 15.80904987  3543
STARLINK-37424          
1 69192U 26114L   26160.50003471  .00010093  00000+0  61880-4 0  9995
2 69192  53.1593 240.7305 0001119  84.0006  26.5764 15.78064038  3573
STARLINK-36666          
1 69193U 26114M   26160.41346884  .00121356  00000+0  60929-3 0  9991
2 69193  53.1591 241.1168 0001003  66.2289 293.8838 15.80890734  3542
STARLINK-37355          
1 69194U 26114N   26160.41271949  .00156422  00000+0  78100-3 0  9993
2 69194  53.1590 241.1121 0001183  55.9523 304.1612 15.80894514  3542
STARLINK-37166          
1 69195U 26114P   26160.41121642  .00136440  00000+0  68461-3 0  9995
2 69195  53.1590 241.1007 0001003  80.8571 279.2565 15.80851701  3547
STARLINK-36933          
1 69196U 26114Q   26160.41196794  .00118018  00000+0  59282-3 0  9998
2 69196  53.1590 241.1066 0001064  77.3057 282.8085 15.80891843  3548
STARLINK-37419          
1 69197U 26114R   26160.41046720  .00130689  00000+0  65487-3 0  9994
2 69197  53.1590 241.0961 0001142  99.5687 260.5464 15.80900444  3546
